[{"OBJECT_NAME":"SNAP-3 ALICE","OBJECT_ID":"2015-058G","EPOCH":"2026-03-09T23:07:48.978048","MEAN_MOTION":15.43691989,"ECCENTRICITY":0.00373618,"INCLINATION":64.7559,"RA_OF_ASC_NODE":82.4068,"ARG_OF_PERICENTER":68.3259,"MEAN_ANOMALY":292.185,"EPHEMERIS_TYPE":0,"CLASSIFICATION_TYPE":"U","NORAD_CAT_ID":40970,"ELEMENT_SET_NO":999,"REV_AT_EPOCH":10149,"BSTAR":0.0014230807,"MEAN_MOTION_DOT":0.0006659,"MEAN_MOTION_DDOT":0},{"OBJECT_NAME":"STARLINK-2401","OBJECT_ID":"2021-018AH","EPOCH":"2026-03-09T22:10:26.161824","MEAN_MOTION":15.422267,"ECCENTRICITY":7.664e-5,"INCLINATION":53.0517,"RA_OF_ASC_NODE":251.5428,"ARG_OF_PERICENTER":114.0385,"MEAN_ANOMALY":246.0699,"EPHEMERIS_TYPE":0,"CLASSIFICATION_TYPE":"U","NORAD_CAT_ID":47818,"ELEMENT_SET_NO":999,"REV_AT_EPOCH":27661,"BSTAR":0.00076022564,"MEAN_MOTION_DOT":0.00032889,"MEAN_MOTION_DDOT":0}]
